NORAD_CAT_ID,OBJECT_NAME,OBJECT_TYPE,EPOCH,MEAN_MOTION,ECCENTRICITY,INCLINATION,RA_OF_ASC_NODE,ARG_OF_PERICENTER,MEAN_ANOMALY,BSTAR,MEAN_MOTION_DOT,MEAN_MOTION_DDOT,TLE_LINE0,TLE_LINE1,TLE_LINE2,SEMIMAJOR_AXIS,PERIOD,APOGEE,PERIGEE,DECAYED
55405.0,STARLINK-5623,PAYLOAD,2023-09-24 03:54:54,14.98333273,0.0003005,70.0025,167.4844,270.9244,89.157,1.9823e-05,1.44e-06,0.0,0 STARLINK-5623,1 55405U 23014Q   23267.16313579  .00000144  00000-0  19823-4 0  9990,2 55405  70.0025 167.4844 0003005 270.9244  89.1570 14.98333273 37615,6950.183,96.107,574.136,569.959,0.0
55405.0,STARLINK-5623,PAYLOAD,2023-09-24 21:32:23,14.98328606,0.0002661,70.0025,165.6328,258.6213,101.4647,-6.4172e-06,-1.69e-06,0.0,0 STARLINK-5623,1 55405U 23014Q   23267.89749686 -.00000169  00000-0 -64172-5 0  9999,2 55405  70.0025 165.6328 0002661 258.6213 101.4647 14.98328606 37727,6950.197,96.107,573.912,570.213,0.0
55405.0,STARLINK-5623,PAYLOAD,2023-09-25 02:20:47,14.98331616,0.0002784,70.0024,165.1278,262.583,97.5013,2.668e-05,2.25e-06,0.0,0 STARLINK-5623,1 55405U 23014Q   23268.09777390  .00000225  00000-0  26680-4 0  9997,2 55405  70.0024 165.1278 0002784 262.5830  97.5013 14.98331616 36816,6950.188,96.107,573.988,570.118,0.0
55405.0,STARLINK-5623,PAYLOAD,2023-09-25 10:21:27,14.9833782,0.0002854,70.0016,164.2856,268.6121,91.4711,-7.0975e-06,-1.78e-06,0.0,0 STARLINK-5623,1 55405U 23014Q   23268.43156955 -.00000178  00000-0 -70975-5 0  9999,2 55405  70.0016 164.2856 0002854 268.6121  91.4711 14.98337820 37808,6950.169,96.106,574.017,570.05,0.0
55405.0,STARLINK-5623,PAYLOAD,2023-09-25 21:34:24,14.98333846,0.000327,70.0012,163.107,278.0105,82.0683,5.5805e-05,5.73e-06,0.0,0 STARLINK-5623,1 55405U 23014Q   23268.89888944  .00000573  00000-0  55805-4 0  9990,2 55405  70.0012 163.1070 0003270 278.0105  82.0683 14.98333846 37875,6950.181,96.107,574.319,569.773,0.0
55405.0,STARLINK-5623,PAYLOAD,2023-09-26 02:22:47,14.98338974,0.0003106,70.0015,162.6014,279.145,80.9358,0.00012246,1.369e-05,0.0,0 STARLINK-5623,1 55405U 23014Q   23269.09916394  .00001369  00000-0  12246-3 0  9999,2 55405  70.0015 162.6014 0003106 279.1450  80.9358 14.98338974 36965,6950.165,96.106,574.189,569.871,0.0
55405.0,STARLINK-5623,PAYLOAD,2023-09-26 18:24:09,14.98326177,0.0002674,70.0036,160.9222,241.6894,118.3996,-3.9085e-05,-5.59e-06,0.0,0 STARLINK-5623,1 55405U 23014Q   23269.76677440 -.00000559  00000-0 -39085-4 0  9992,2 55405  70.0036 160.9222 0002674 241.6894 118.3996 14.98326177 37063,6950.205,96.107,573.928,570.211,0.0
55405.0,STARLINK-5623,PAYLOAD,2023-09-26 21:36:25,14.98324477,0.0002795,70.0032,160.585,245.0626,115.0243,-6.6988e-05,-8.92e-06,0.0,0 STARLINK-5623,1 55405U 23014Q   23269.90029647 -.00000892  00000-0 -66988-4 0  9990,2 55405  70.0032 160.5850 0002795 245.0626 115.0243 14.98324477 38024,6950.21,96.107,574.018,570.132,0.0
55405.0,STARLINK-5623,PAYLOAD,2023-09-27 00:48:42,14.98315856,0.0002488,70.0026,160.2477,245.1066,114.9834,-0.00012424,-1.574e-05,0.0,0 STARLINK-5623,1 55405U 23014Q   23270.03382473 -.00001574  00000-0 -12424-3 0  9998,2 55405  70.0026 160.2477 0002488 245.1066 114.9834 14.98315856 37100,6950.237,96.108,573.831,570.372,0.0
55405.0,STARLINK-5623,PAYLOAD,2023-09-27 02:24:50,14.9832438,0.000341,70.0007,160.077,272.2567,87.8202,-9.047e-05,-1.172e-05,0.0,0 STARLINK-5623,1 55405U 23014Q   23270.10057886 -.00001172  00000-0 -90470-4 0  9995,2 55405  70.0007 160.0770 0003410 272.2567  87.8202 14.98324380 37116,6950.21,96.107,574.445,569.705,0.0
55405.0,STARLINK-5623,PAYLOAD,2023-09-27 10:25:30,14.98324995,0.000299,70.0007,159.2344,271.7063,88.3754,-0.00011654,-1.483e-05,0.0,0 STARLINK-5623,1 55405U 23014Q   23270.43438071 -.00001483  00000-0 -11654-3 0  9991,2 55405  70.0007 159.2344 0002990 271.7063  88.3754 14.98324995 38100,6950.208,96.107,574.151,569.995,0.0
55405.0,STARLINK-5623,PAYLOAD,2023-09-28 02:26:51,14.98324544,0.0002951,70.0006,157.5516,269.1174,90.9647,-0.00010319,-1.324e-05,0.0,0 STARLINK-5623,1 55405U 23014Q   23271.10198345 -.00001324  00000-0 -10319-3 0  9994,2 55405  70.0006 157.5516 0002951 269.1174  90.9647 14.98324544 37268,6950.21,96.107,574.126,570.024,0.0
55405.0,STARLINK-5623,PAYLOAD,2023-09-28 18:28:11,14.98330109,0.000325,70.0002,155.8683,268.9756,91.1031,0.00013351,1.5e-05,0.0,0 STARLINK-5623,1 55405U 23014Q   23271.76957457  .00001500  00000-0  13351-3 0  9996,2 55405  70.0002 155.8683 0003250 268.9756  91.1031 14.98330109 37361,6950.193,96.107,574.316,569.799,0.0
55405.0,STARLINK-5623,PAYLOAD,2023-09-28 21:40:27,14.98331209,0.0003236,70.0004,155.5318,269.318,90.7609,0.00014327,1.617e-05,0.0,0 STARLINK-5623,1 55405U 23014Q   23271.90309370  .00001617  00000-0  14327-3 0  9990,2 55405  70.0004 155.5318 0003236 269.3180  90.7609 14.98331209 38320,6950.189,96.107,574.303,569.805,0.0
55405.0,STARLINK-5623,PAYLOAD,2023-09-29 18:30:12,14.9833091,0.0003285,70.0002,153.3441,269.8314,90.2469,0.00016011,1.818e-05,0.0,0 STARLINK-5623,1 55405U 23014Q   23272.77097247  .00001818  00000-0  16011-3 0  9998,2 55405  70.0002 153.3441 0003285 269.8314  90.2469 14.98330910 37516,6950.19,96.107,574.338,569.772,0.0
55405.0,STARLINK-5623,PAYLOAD,2023-09-30 02:30:52,14.98335021,0.0002924,70.001,152.5049,259.4274,100.6556,0.00016042,1.822e-05,0.0,0 STARLINK-5623,1 55405U 23014Q   23273.10476852  .00001822  00000-0  16042-3 0  9998,2 55405  70.0010 152.5049 0002924 259.4274 100.6556 14.98335021 38500,6950.177,96.107,574.075,570.01,0.0
55405.0,STARLINK-5623,PAYLOAD,2023-09-30 08:55:25,14.98324024,0.0002545,70.0032,151.8317,261.4088,98.6783,5.194e-05,5.27e-06,0.0,0 STARLINK-5623,1 55405U 23014Q   23273.37181917  .00000527  00000-0  51940-4 0  9990,2 55405  70.0032 151.8317 0002545 261.4088  98.6783 14.98324024 37608,6950.211,96.107,573.845,570.308,0.0
55405.0,STARLINK-5623,PAYLOAD,2023-10-01 08:57:25,14.98332253,0.0002876,70.0004,149.3044,270.1864,89.8966,-6.1373e-05,-8.25e-06,0.0,0 STARLINK-5623,1 55405U 23014Q   23274.37321592 -.00000825  00000-0 -61373-4 0  9990,2 55405  70.0004 149.3044 0002876 270.1864  89.8966 14.98332253 37756,6950.186,96.107,574.05,570.052,0.0
55405.0,STARLINK-5623,PAYLOAD,2023-10-01 21:46:29,14.98338504,0.0003164,69.9997,147.959,269.3659,90.7138,-1.0754e-05,-2.21e-06,0.0,0 STARLINK-5623,1 55405U 23014Q   23274.90728766 -.00000221  00000-0 -10754-4 0  9990,2 55405  69.9997 147.9590 0003164 269.3659  90.7138 14.98338504 38777,6950.167,96.106,574.231,569.833,0.0
55405.0,STARLINK-5623,PAYLOAD,2023-10-02 00:58:45,14.98336107,0.0003129,69.9995,147.6218,268.6301,91.45,0.00011314,1.257e-05,0.0,0 STARLINK-5623,1 55405U 23014Q   23275.04080517  .00001257  00000-0  11314-3 0  9991,2 55405  69.9995 147.6218 0003129 268.6301  91.4500 14.98336107 37852,6950.174,96.107,574.214,569.864,0.0
55405.0,STARLINK-5623,PAYLOAD,2023-10-02 08:59:26,14.98330318,0.0002527,70.0017,146.7804,278.0612,82.026,-0.0001096,-1.4e-05,0.0,0 STARLINK-5623,1 55405U 23014Q   23275.37461561 -.00001400  00000-0 -10960-3 0  9997,2 55405  70.0017 146.7804 0002527 278.0612  82.0260 14.98330318 37905,6950.192,96.107,573.813,570.301,0.0
55405.0,STARLINK-5623,PAYLOAD,2023-10-02 20:12:23,14.98321164,0.0002961,70.0006,145.6023,269.9735,90.1084,2.29e-05,1.8e-06,0.0,0 STARLINK-5623,1 55405U 23014Q   23275.84193740  .00000180  00000-0  22900-4 0  9990,2 55405  70.0006 145.6023 0002961 269.9735  90.1084 14.98321164 38916,6950.22,96.108,574.143,570.027,0.0
55405.0,STARLINK-5623,PAYLOAD,2023-10-03 09:01:27,14.98327465,0.0003057,69.9993,144.2552,268.8295,91.2514,-2.0947e-05,-3.43e-06,0.0,0 STARLINK-5623,1 55405U 23014Q   23276.37601527 -.00000343  00000-0 -20947-4 0  9998,2 55405  69.9993 144.2552 0003057 268.8295  91.2514 14.98327465 38051,6950.201,96.107,574.19,569.941,0.0
55405.0,STARLINK-5623,PAYLOAD,2023-10-03 20:14:24,14.98329341,0.0003043,69.9996,143.0765,269.1764,90.9046,-2.3732e-05,-3.76e-06,0.0,0 STARLINK-5623,1 55405U 23014Q   23276.84333444 -.00000376  00000-0 -23732-4 0  9991,2 55405  69.9996 143.0765 0003043 269.1764  90.9046 14.98329341 39060,6950.195,96.107,574.175,569.945,0.0
55405.0,STARLINK-5623,PAYLOAD,2023-10-04 09:03:28,14.98331413,0.0002994,69.9993,141.7296,266.7787,93.3029,5.0237e-05,5.06e-06,0.0,0 STARLINK-5623,1 55405U 23014Q   23277.37740996  .00000506  00000-0  50237-4 0  9997,2 55405  69.9993 141.7296 0002994 266.7787  93.3029 14.98331413 38209,6950.189,96.107,574.134,569.973,0.0
55405.0,STARLINK-5623,PAYLOAD,2023-10-04 21:52:32,14.98336373,0.0003062,69.999,140.3837,268.2031,91.8778,0.00010014,1.102e-05,0.0,0 STARLINK-5623,1 55405U 23014Q   23277.91148470  .00001102  00000-0  10014-3 0  9997,2 55405  69.9990 140.3837 0003062 268.2031  91.8778 14.98336373 39225,6950.173,96.107,574.166,569.91,0.0
55405.0,STARLINK-5623,PAYLOAD,2023-10-05 01:04:48,14.98337537,0.0003053,69.999,140.047,268.1609,91.9201,0.00010929,1.211e-05,0.0,0 STARLINK-5623,1 55405U 23014Q   23278.04500315  .00001211  00000-0  10929-3 0  9998,2 55405  69.9990 140.0470 0003053 268.1609  91.9201 14.98337537 38308,6950.17,96.107,574.156,569.913,0.0
55405.0,STARLINK-5623,PAYLOAD,2023-10-05 13:53:53,14.98326638,0.0002826,70.0001,138.7004,270.4492,89.6343,-1.9437e-05,-3.25e-06,0.0,0 STARLINK-5623,1 55405U 23014Q   23278.57909373 -.00000325  00000-0 -19437-4 0  9994,2 55405  70.0001 138.7004 0002826 270.4492  89.6343 14.98326638 39328,6950.203,96.107,574.032,570.104,0.0
55405.0,STARLINK-5623,PAYLOAD,2023-10-05 18:42:17,14.98327653,0.0002794,69.9998,138.1954,270.5515,89.5324,-2.5942e-05,-4.02e-06,0.0,0 STARLINK-5623,1 55405U 23014Q   23278.77937346 -.00000402  00000-0 -25942-4 0  9991,2 55405  69.9998 138.1954 0002794 270.5515  89.5324 14.98327653 38414,6950.2,96.107,574.007,570.123,0.0
55405.0,STARLINK-5623,PAYLOAD,2023-10-05 21:54:33,14.98329365,0.0002688,69.9998,137.8588,259.653,100.4326,-2.2651e-05,-3.63e-06,0.0,0 STARLINK-5623,1 55405U 23014Q   23278.91289181 -.00000363  00000-0 -22651-4 0  9994,2 55405  69.9998 137.8588 0002688 259.6530 100.4326 14.98329365 39373,6950.195,96.107,573.928,570.192,0.0
